[
    {
        "Altitude(m)": 580536.4811271628,
        "Argument of Periapsis(deg)": -0.015068773855314936,
        "Eccentricity": 0.0,
        "Inclination(deg)": 97.0,
        "Latitude(deg)": -44.372587534927106,
        "Longitude(deg)": -4.691414409471551,
        "Mean Anomaly(deg)": -44.50780448720832,
        "RAAN(deg)": 90.00396470241235,
        "Satellite Name": "Starlink Shell 3 1805",
        "Satellite Number": 1805,
        "Semi-Major Axis(m)": 6938478.169268562,
        "Time(s)": 380
    },
    {
        "Altitude(m)": 580283.0271053477,
        "Argument of Periapsis(deg)": -0.015465320535717962,
        "Eccentricity": 0.0,
        "Inclination(deg)": 97.0,
        "Latitude(deg)": -43.75730838137467,
        "Longitude(deg)": -4.879647572183785,
        "Mean Anomaly(deg)": -43.88232828950325,
        "RAAN(deg)": 90.00406903668636,
        "Satellite Name": "Starlink Shell 3 1805",
        "Satellite Number": 1805,
        "Semi-Major Axis(m)": 6938478.169268562,
        "Time(s)": 390
    },
    {
        "Altitude(m)": 580029.0837550291,
        "Argument of Periapsis(deg)": -0.015861867216120987,
        "Eccentricity": 0.0,
        "Inclination(deg)": 97.0,
        "Latitude(deg)": -43.141751113855065,
        "Longitude(deg)": -5.064918873555141,
        "Mean Anomaly(deg)": -43.256852091798244,
        "RAAN(deg)": 90.00417337096036,
        "Satellite Name": "Starlink Shell 3 1805",
        "Satellite Number": 1805,
        "Semi-Major Axis(m)": 6938478.169268562,
        "Time(s)": 400
    },
    {
        "Altitude(m)": 579774.7507610553,
        "Argument of Periapsis(deg)": -0.01625841389652401,
        "Eccentricity": 0.0,
        "Inclination(deg)": 97.0,
        "Latitude(deg)": -42.52592311474404,
        "Longitude(deg)": -5.247348221156345,
        "Mean Anomaly(deg)": -42.63137589409318,
        "RAAN(deg)": 90.00427770523437,
        "Satellite Name": "Starlink Shell 3 1805",
        "Satellite Number": 1805,
        "Semi-Major Axis(m)": 6938478.169268562,
        "Time(s)": 410
    },
    {
        "Altitude(m)": 579520.1278207687,
        "Argument of Periapsis(deg)": -0.016654960576927034,
        "Eccentricity": 0.0,
        "Inclination(deg)": 97.0,
        "Latitude(deg)": -41.90983143943542,
        "Longitude(deg)": -5.427050128082674,
        "Mean Anomaly(deg)": -42.005899696388134,
        "RAAN(deg)": 90.00438203950837,
        "Satellite Name": "Starlink Shell 3 1805",
        "Satellite Number": 1805,
        "Semi-Major Axis(m)": 6938478.169268562,
        "Time(s)": 420
    },
    {
        "Altitude(m)": 579265.3145991531,
        "Argument of Periapsis(deg)": -0.01705150725733006,
        "Eccentricity": 0.0,
        "Inclination(deg)": 97.0,
        "Latitude(deg)": -41.29348283949826,
        "Longitude(deg)": -5.604133574580192,
        "Mean Anomaly(deg)": -41.38042349868308,
        "RAAN(deg)": 90.0044863737824,
        "Satellite Name": "Starlink Shell 3 1805",
        "Satellite Number": 1805,
        "Semi-Major Axis(m)": 6938478.169268562,
        "Time(s)": 430
    },
    {
        "Altitude(m)": 579010.4106839539,
        "Argument of Periapsis(deg)": -0.017448053937733084,
        "Eccentricity": 0.0,
        "Inclination(deg)": 97.0,
        "Latitude(deg)": -40.676883784121806,
        "Longitude(deg)": -5.778701843259873,
        "Mean Anomaly(deg)": -40.754947300978024,
        "RAAN(deg)": 90.0045907080564,
        "Satellite Name": "Starlink Shell 3 1805",
        "Satellite Number": 1805,
        "Semi-Major Axis(m)": 6938478.169268562,
        "Time(s)": 440
    },
    {
        "Altitude(m)": 578755.5155407727,
        "Argument of Periapsis(deg)": -0.017844600618136107,
        "Eccentricity": 0.0,
        "Inclination(deg)": 97.0,
        "Latitude(deg)": -40.06004047999394,
        "Longitude(deg)": -5.950853842963887,
        "Mean Anomaly(deg)": -40.129471103273005,
        "RAAN(deg)": 90.0046950423304,
        "Satellite Name": "Starlink Shell 3 1805",
        "Satellite Number": 1805,
        "Semi-Major Axis(m)": 6938478.169268562,
        "Time(s)": 450
    },
    {
        "Altitude(m)": 578500.7284682001,
        "Argument of Periapsis(deg)": -0.018241147298539134,
        "Eccentricity": 0.0,
        "Inclination(deg)": 97.0,
        "Latitude(deg)": -39.44295888973562,
        "Longitude(deg)": -6.120683897523731,
        "Mean Anomaly(deg)": -39.50399490556795,
        "RAAN(deg)": 90.00479937660441,
        "Satellite Name": "Starlink Shell 3 1805",
        "Satellite Number": 1805,
        "Semi-Major Axis(m)": 6938478.169268562,
        "Time(s)": 460
    },
    {
        "Altitude(m)": 578246.1485529257,
        "Argument of Periapsis(deg)": -0.018637693978942157,
        "Eccentricity": 0.0,
        "Inclination(deg)": 97.0,
        "Latitude(deg)": -38.82564474901238,
        "Longitude(deg)": -6.288281514088863,
        "Mean Anomaly(deg)": -38.878518707862895,
        "RAAN(deg)": 90.00490371087842,
        "Satellite Name": "Starlink Shell 3 1805",
        "Satellite Number": 1805,
        "Semi-Major Axis(m)": 6938478.169268562,
        "Time(s)": 470
    },
    {
        "Altitude(m)": 577991.8746249562,
        "Argument of Periapsis(deg)": -0.019034240659345183,
        "Eccentricity": 0.0,
        "Inclination(deg)": 97.0,
        "Latitude(deg)": -38.208103582430574,
        "Longitude(deg)": -6.45373264554037,
        "Mean Anomaly(deg)": -38.25304251015784,
        "RAAN(deg)": 90.00500804515244,
        "Satellite Name": "Starlink Shell 3 1805",
        "Satellite Number": 1805,
        "Semi-Major Axis(m)": 6938478.169268562,
        "Time(s)": 480
    },
    {
        "Altitude(m)": 577738.005212868,
        "Argument of Periapsis(deg)": -0.019430787339748207,
        "Eccentricity": 0.0,
        "Inclination(deg)": 97.0,
        "Latitude(deg)": -37.590340718309825,
        "Longitude(deg)": -6.617119422735225,
        "Mean Anomaly(deg)": -37.62756631245278,
        "RAAN(deg)": 90.00511237942644,
        "Satellite Name": "Starlink Shell 3 1805",
        "Satellite Number": 1805,
        "Semi-Major Axis(m)": 6938478.169268562,
        "Time(s)": 490
    },
    {
        "Altitude(m)": 577484.6384991739,
        "Argument of Periapsis(deg)": -0.019827334020151237,
        "Eccentricity": 0.0,
        "Inclination(deg)": 97.0,
        "Latitude(deg)": -36.97236130242281,
        "Longitude(deg)": -6.778519870816507,
        "Mean Anomaly(deg)": -37.002090114747766,
        "RAAN(deg)": 90.00521671370043,
        "Satellite Name": "Starlink Shell 3 1805",
        "Satellite Number": 1805,
        "Semi-Major Axis(m)": 6938478.169268562,
        "Time(s)": 500
    },
    {
        "Altitude(m)": 577231.8722757909,
        "Argument of Periapsis(deg)": -0.020223880700554257,
        "Eccentricity": 0.0,
        "Inclination(deg)": 97.0,
        "Latitude(deg)": -36.354170310783836,
        "Longitude(deg)": -6.9380091237028205,
        "Mean Anomaly(deg)": -36.37661391704271,
        "RAAN(deg)": 90.00532104797446,
        "Satellite Name": "Starlink Shell 3 1805",
        "Satellite Number": 1805,
        "Semi-Major Axis(m)": 6938478.169268562,
        "Time(s)": 510
    },
    {
        "Altitude(m)": 576979.8038996613,
        "Argument of Periapsis(deg)": -0.020620427380957283,
        "Eccentricity": 0.0,
        "Inclination(deg)": 97.0,
        "Latitude(deg)": -35.735772561554604,
        "Longitude(deg)": -7.095659112143657,
        "Mean Anomaly(deg)": -35.751137719337656,
        "RAAN(deg)": 90.00542538224846,
        "Satellite Name": "Starlink Shell 3 1805",
        "Satellite Number": 1805,
        "Semi-Major Axis(m)": 6938478.169268562,
        "Time(s)": 520
    },
    {
        "Altitude(m)": 576728.5302485189,
        "Argument of Periapsis(deg)": -0.021016974061360306,
        "Eccentricity": 0.0,
        "Inclination(deg)": 97.0,
        "Latitude(deg)": -35.117172726136175,
        "Longitude(deg)": -7.25153823924839,
        "Mean Anomaly(deg)": -35.125661521632594,
        "RAAN(deg)": 90.00552971652247,
        "Satellite Name": "Starlink Shell 3 1805",
        "Satellite Number": 1805,
        "Semi-Major Axis(m)": 6938478.169268562,
        "Time(s)": 530
    },
    {
        "Altitude(m)": 576478.1476768515,
        "Argument of Periapsis(deg)": -0.021413520741763333,
        "Eccentricity": 0.0,
        "Inclination(deg)": 97.0,
        "Latitude(deg)": -34.498375339510005,
        "Longitude(deg)": -7.405712557310057,
        "Mean Anomaly(deg)": -34.500185323927546,
        "RAAN(deg)": 90.00563405079647,
        "Satellite Name": "Starlink Shell 3 1805",
        "Satellite Number": 1805,
        "Semi-Major Axis(m)": 6938478.169268562,
        "Time(s)": 540
    },
    {
        "Altitude(m)": 576228.7519720587,
        "Argument of Periapsis(deg)": -0.021810067422166356,
        "Eccentricity": 0.0,
        "Inclination(deg)": 97.0,
        "Latitude(deg)": -33.879384809879134,
        "Longitude(deg)": -7.558245421043134,
        "Mean Anomaly(deg)": -33.87470912622254,
        "RAAN(deg)": 90.0057383850705,
        "Satellite Name": "Starlink Shell 3 1805",
        "Satellite Number": 1805,
        "Semi-Major Axis(m)": 6938478.169268562,
        "Time(s)": 550
    },
    {
        "Altitude(m)": 575980.4383108347,
        "Argument of Periapsis(deg)": -0.022206614102569383,
        "Eccentricity": 0.0,
        "Inclination(deg)": 97.0,
        "Latitude(deg)": -33.260205427662136,
        "Longitude(deg)": -7.709197130903382,
        "Mean Anomaly(deg)": -33.24923292851747,
        "RAAN(deg)": 90.0058427193445,
        "Satellite Name": "Starlink Shell 3 1805",
        "Satellite Number": 1805,
        "Semi-Major Axis(m)": 6938478.169268562,
        "Time(s)": 560
    }
]